{
    "links": {
        "self": "http://www.neowsapp.com/rest/v1/neo/3840735?api_key=iIulBulltgU6a56xZRHN4H3l9WmuAYTsLGpBGhQ2"
    },
    "id": "3840735",
    "neo_reference_id": "3840735",
    "name": "(2019 FV1)",
    "designation": "2019 FV1",
    "nasa_jpl_url": "http://ssd.jpl.nasa.gov/sbdb.cgi?sstr=3840735",
    "absolute_magnitude_h": 28.9,
    "estimated_diameter": {
        "kilometers": {
            "estimated_diameter_min": 0.004411182,
            "estimated_diameter_max": 0.0098637028
        },
        "meters": {
            "estimated_diameter_min": 4.411182,
            "estimated_diameter_max": 9.8637028131
        },
        "miles": {
            "estimated_diameter_min": 0.0027409806,
            "estimated_diameter_max": 0.0061290189
        },
        "feet": {
            "estimated_diameter_min": 14.4723823528,
            "estimated_diameter_max": 32.3612307372
        }
    },
    "is_potentially_hazardous_asteroid": false,
    "close_approach_data": [
        {
            "close_approach_date": "1992-09-13",
            "close_approach_date_full": "1992-Sep-13 00:03",
            "epoch_date_close_approach": 716342580000,
            "relative_velocity": {
                "kilometers_per_second": "13.7962214353",
                "kilometers_per_hour": "49666.3971672355",
                "miles_per_hour": "30860.7677287192"
            },
            "miss_distance": {
                "astronomical": "0.0878917904",
                "lunar": "34.1899064656",
                "kilometers": "13148424.634326448",
                "miles": "8170052.2174150624"
            },
            "orbiting_body": "Venus"
        },
        {
            "close_approach_date": "1995-04-23",
            "close_approach_date_full": "1995-Apr-23 20:34",
            "epoch_date_close_approach": 798669240000,
            "relative_velocity": {
                "kilometers_per_second": "13.1759783484",
                "kilometers_per_hour": "47433.5220541115",
                "miles_per_hour": "29473.3459674561"
            },
            "miss_distance": {
                "astronomical": "0.206080346",
                "lunar": "80.165254594",
                "kilometers": "30829180.81046302",
                "miles": "19156364.663188876"
            },
            "orbiting_body": "Earth"
        },
        {
            "close_approach_date": "2019-03-31",
            "close_approach_date_full": "2019-Mar-31 05:27",
            "epoch_date_close_approach": 1554010020000,
            "relative_velocity": {
                "kilometers_per_second": "18.2783276266",
                "kilometers_per_hour": "65801.9794557661",
                "miles_per_hour": "40886.7910679453"
            },
            "miss_distance": {
                "astronomical": "0.0022330381",
                "lunar": "0.8686518209",
                "kilometers": "334057.743388847",
                "miles": "207573.8564142086"
            },
            "orbiting_body": "Earth"
        },
        {
            "close_approach_date": "2019-03-31",
            "close_approach_date_full": "2019-Mar-31 09:27",
            "epoch_date_close_approach": 1554024420000,
            "relative_velocity": {
                "kilometers_per_second": "17.5454604526",
                "kilometers_per_hour": "63163.6576294075",
                "miles_per_hour": "39247.4404864505"
            },
            "miss_distance": {
                "astronomical": "0.0008204963",
                "lunar": "0.3191730607",
                "kilometers": "122744.498822881",
                "miles": "76269.8948865178"
            },
            "orbiting_body": "Moon"
        },
        {
            "close_approach_date": "2034-08-25",
            "close_approach_date_full": "2034-Aug-25 23:36",
            "epoch_date_close_approach": 2040161760000,
            "relative_velocity": {
                "kilometers_per_second": "15.5124036395",
                "kilometers_per_hour": "55844.653102304",
                "miles_per_hour": "34699.6957012622"
            },
            "miss_distance": {
                "astronomical": "0.0823867904",
                "lunar": "32.0484614656",
                "kilometers": "12324888.359976448",
                "miles": "7658330.5053850624"
            },
            "orbiting_body": "Mars"
        }
    ],
    "orbital_data": {
        "orbit_id": "1",
        "orbit_determination_date": "2019-04-01 06:59:42",
        "first_observation_date": "2019-03-29",
        "last_observation_date": "2019-03-30",
        "data_arc_in_days": 1,
        "observations_used": 39,
        "orbit_uncertainty": "8",
        "minimum_orbit_intersection": ".000568577",
        "jupiter_tisserand_invariant": "3.640",
        "epoch_osculation": "2458572.5",
        "eccentricity": ".634647384836779",
        "semi_major_axis": "1.922261230704485",
        "inclination": "6.845849417788315",
        "ascending_node_longitude": "9.837628372795068",
        "orbital_period": "973.4575936241803",
        "perihelion_distance": ".7023031676647553",
        "perihelion_argument": "256.6693980278657",
        "aphelion_distance": "3.142219293744215",
        "perihelion_time": "2458619.848118828987",
        "mean_anomaly": "342.4899174960713",
        "mean_motion": ".3698158012818215",
        "equinox": "J2000",
        "orbit_class": {
            "orbit_class_type": "APO",
            "orbit_class_description": "Near-Earth asteroid orbits which cross the Earth’s orbit similar to that of 1862 Apollo",
            "orbit_class_range": "a (semi-major axis) > 1.0 AU; q (perihelion) < 1.017 AU"
        }
    },
    "is_sentry_object": false
}